[{"OBJECT_NAME":"STARLINK-3445","OBJECT_ID":"2022-016D","EPOCH":"2026-03-09T22:43:04.149120","MEAN_MOTION":15.08836037,"ECCENTRICITY":0.00013436,"INCLINATION":53.2193,"RA_OF_ASC_NODE":328.0547,"ARG_OF_PERICENTER":93.2392,"MEAN_ANOMALY":266.8754,"EPHEMERIS_TYPE":0,"CLASSIFICATION_TYPE":"U","NORAD_CAT_ID":51717,"ELEMENT_SET_NO":999,"REV_AT_EPOCH":22346,"BSTAR":4.293426e-6,"MEAN_MOTION_DOT":-2.2e-6,"MEAN_MOTION_DDOT":0},{"OBJECT_NAME":"LEMUR-2-STELLA","OBJECT_ID":"2024-149BT","EPOCH":"2026-03-09T17:26:15.951264","MEAN_MOTION":15.09464064,"ECCENTRICITY":0.0001299,"INCLINATION":97.6764,"RA_OF_ASC_NODE":150.9122,"ARG_OF_PERICENTER":95.1117,"MEAN_ANOMALY":265.026,"EPHEMERIS_TYPE":0,"CLASSIFICATION_TYPE":"U","NORAD_CAT_ID":60533,"ELEMENT_SET_NO":999,"REV_AT_EPOCH":8548,"BSTAR":0.00085776432,"MEAN_MOTION_DOT":0.00013685,"MEAN_MOTION_DDOT":0}]
